OBJECT_NAME,OBJECT_ID,EPOCH,MEAN_MOTION,ECCENTRICITY,INCLINATION,RA_OF_ASC_NODE,ARG_OF_PERICENTER,MEAN_ANOMALY,EPHEMERIS_TYPE,CLASSIFICATION_TYPE,NORAD_CAT_ID,ELEMENT_SET_NO,REV_AT_EPOCH,BSTAR,MEAN_MOTION_DOT,MEAN_MOTION_DDOT
HULIANWANG DIGUI-29,2025-086K,2026-06-05T19:53:01.941216,13.24409603,.0001348,86.5022,316.8807,90.0356,270.0932,0,U,63696,999,5335,.66253E-4,.43E-6,0
STARLINK-33894,2025-087A,2026-06-04T12:30:02.866464,15.34413991,.00031717,53.1579,174.8379,149.8165,210.3021,0,U,63697,999,6251,.88879822E-3,.29788E-3,0
STARLINK-33922,2025-087B,2026-06-05T08:17:47.398272,15.30216069,.0001048,53.1578,172.1555,59.1830,300.9274,0,U,63698,999,6261,.67856E-3,.19801E-3,0
STARLINK-33919,2025-087C,2026-06-05T08:04:16.396896,15.30213180,.0001177,53.1556,172.8014,50.1985,309.9119,0,U,63699,999,6261,.6305E-3,.18368E-3,0
STARLINK-33908,2025-087D,2026-06-05T16:32:21.682176,15.30174710,.0001323,53.1553,170.7490,101.7010,258.4139,0,U,63700,999,6267,.92299E-3,.27056E-3,0
STARLINK-33950,2025-087E,2026-06-05T07:17:52.912896,15.31712975,.000176,53.1575,172.5990,38.6824,321.4304,0,U,63701,999,6261,.63667E-3,.19451E-3,0
STARLINK-33939,2025-087F,2026-06-05T16:01:17.603040,15.31721039,.0001454,53.1569,170.6123,84.4651,275.6516,0,U,63702,999,6267,-.54317E-3,-.17193E-3,0
STARLINK-33868,2025-087G,2026-06-05T08:48:10.001088,15.30222283,.0000988,53.1589,172.2779,90.5268,269.5846,0,U,63703,999,6262,.54462E-3,.15816E-3,0
STARLINK-33937,2025-087H,2026-06-05T08:13:13.668384,15.30214419,.0001201,53.1560,172.1303,49.6634,310.4472,0,U,63704,999,6262,.68564E-3,.20011E-3,0
STARLINK-33848,2025-087J,2026-06-05T08:29:56.694624,15.30204560,.0001256,53.1567,172.2035,90.2784,269.8360,0,U,63705,999,6261,.51501E-3,.14927E-3,0
STARLINK-33995,2025-087K,2026-06-05T15:46:56.437824,15.30202125,.0001145,53.1567,171.2525,104.7191,255.3936,0,U,63706,999,6266,.7737E-3,.22627E-3,0
STARLINK-33982,2025-087L,2026-06-05T08:39:03.703392,15.30216588,.0001544,53.1576,172.2412,53.0224,307.0918,0,U,63707,999,6262,.95498E-3,.28046E-3,0
STARLINK-33915,2025-087M,2026-06-05T07:21:45.308160,15.30193827,.0001474,53.1586,172.6188,90.6410,269.4760,0,U,63708,999,6261,.76949E-3,.22496E-3,0
STARLINK-33862,2025-087N,2026-06-05T13:28:50.683008,15.30204269,.0001346,53.1582,171.3697,70.6396,289.4750,0,U,63709,999,6265,.57193E-3,.1662E-3,0
STARLINK-33920,2025-087P,2026-06-05T08:38:23.887680,15.31714902,.0001377,53.1587,172.2477,68.3136,291.8012,0,U,63710,999,6262,.49343E-3,.14984E-3,0
STARLINK-33580,2025-087Q,2026-06-04T13:57:35.661600,15.31706634,.00018932,53.1577,175.9165,42.6715,317.4433,0,U,63711,999,6250,.62222055E-3,.18996E-3,0
STARLINK-33783,2025-087R,2026-06-05T13:06:50.126400,15.31714278,.000122,53.1573,171.2748,90.0892,270.0249,0,U,63712,999,6265,.3279E-3,.9828E-4,0
STARLINK-33773,2025-087S,2026-06-05T07:31:10.244928,15.31745570,.0001727,53.1574,171.9503,37.2090,322.9031,0,U,63713,999,6262,.58096E-3,.17731E-3,0
STARLINK-33745,2025-087T,2026-06-05T08:22:20.364384,15.30246056,.0000842,53.1569,172.1679,123.2247,236.8835,0,U,63714,999,6262,.14666E-2,.43393E-3,0
STARLINK-33728,2025-087U,2026-06-05T08:32:59.040960,15.30198549,.0001517,53.1562,172.2207,65.1528,294.9630,0,U,63715,999,6262,.81469E-3,.23846E-3,0
STARLINK-33749,2025-087V,2026-06-05T13:13:33.405312,15.31710015,.0001242,53.1578,171.3018,88.0460,272.0684,0,U,63716,999,6265,.52927E-3,.16099E-3,0
STARLINK-33725,2025-087W,2026-06-05T16:27:48.589920,15.30201043,.0001483,53.1575,170.7218,71.3712,288.7449,0,U,63717,999,6267,.85504E-3,.25051E-3,0
STARLINK-33641,2025-087X,2026-06-05T08:04:48.470304,15.31722642,.0001202,53.1569,172.0947,84.3239,275.7900,0,U,63718,999,6262,.36943E-3,.11124E-3,0
STARLINK-33727,2025-087Y,2026-06-05T08:46:22.429632,15.34407234,.0001022,53.1583,170.8636,96.6268,263.4851,0,U,63719,999,6264,.79057E-3,.26435E-3,0
STARLINK-33757,2025-087Z,2026-06-05T07:18:40.940064,15.30229117,.0001016,53.1584,172.6008,83.3076,276.8040,0,U,63720,999,6261,.14385E-2,.42527E-3,0
STARLINK-33774,2025-087AA,2026-06-05T08:18:14.628096,15.31745836,.0001581,53.1565,172.1538,32.2114,327.8984,0,U,63721,999,6262,.75906E-3,.23297E-3,0
STARLINK-33767,2025-087AB,2026-06-04T05:55:37.482240,15.30211435,.00015415,53.1584,177.3767,46.1577,313.9551,0,U,63722,999,6245,.58666908E-3,.17062E-3,0
STARLINK-33806,2025-087AC,2026-06-05T08:43:37.259616,15.30222391,.0001249,53.1588,172.2614,63.5950,296.5179,0,U,63723,999,6262,.85969E-3,.25206E-3,0
KUIPER-00008,2025-088A,2026-06-05T10:58:27.318432,14.79942922,.0000946,51.9008,59.8992,105.7340,254.3727,0,U,63724,999,6104,-.46708E-3,-.3781E-4,0
KUIPER-00009,2025-088B,2026-06-05T11:19:12.187776,14.80052992,.0000746,51.9025,77.4533,55.4743,304.6290,0,U,63725,999,6079,.64508E-3,.4714E-4,0
KUIPER-00010,2025-088C,2026-06-05T00:34:10.679808,14.79938422,.00010676,51.9025,56.9152,63.9027,296.2045,0,U,63726,999,6066,.1599959E-3,.999E-5,0
KUIPER-00011,2025-088D,2026-06-05T10:54:36.832608,14.79931498,.000063,51.9037,62.5638,101.3180,258.7853,0,U,63727,999,6075,.1053E-3,.582E-5,0
KUIPER-00012,2025-088E,2026-06-05T10:29:16.647936,14.79932330,.0000697,51.9027,47.5716,122.5568,237.5462,0,U,63728,999,6091,-.4655E-5,-.257E-5,0
KUIPER-00013,2025-088F,2026-06-05T02:21:12.724416,14.79933442,.00009206,51.9012,81.5962,101.3285,258.7781,0,U,63729,999,6051,.1799353E-3,.1151E-4,0
KUIPER-00014,2025-088G,2026-06-05T01:32:32.086464,14.79911746,.00008384,51.9028,81.6818,65.6247,294.4802,0,U,63730,999,6032,.19239908E-3,.1245E-4,0
KUIPER-00015,2025-088H,2026-06-05T02:05:41.954496,14.79932241,.00008549,51.8996,91.6508,62.9064,297.1985,0,U,63731,999,6064,.31570726E-4,.19E-6,0
KUIPER-00016,2025-088J,2026-06-04T02:47:18.328704,14.79931908,.00009495,51.8996,88.3973,97.4670,262.6400,0,U,63732,999,6014,.30322945E-3,.2091E-4,0
KUIPER-00018,2025-088K,2026-06-05T00:55:37.399584,14.79928327,.00007634,51.9036,74.3343,92.1020,268.0030,0,U,63733,999,6042,.13016843E-3,.771E-5,0
KUIPER-00019,2025-088L,2026-06-05T11:17:29.601600,14.79932614,.0000498,51.9010,71.1914,97.1977,262.9042,0,U,63734,999,6050,.17977E-3,.115E-4,0
KUIPER-00020,2025-088M,2026-06-05T12:12:26.712864,14.79932804,.0001256,51.9037,74.7644,50.4211,309.6862,0,U,63735,999,6066,.4101E-4,.91E-6,0
KUIPER-00021,2025-088N,2026-06-05T11:23:48.704928,14.79929781,.0001013,51.9005,74.8693,86.0741,274.0337,0,U,63736,999,6049,.12545E-3,.735E-5,0
KUIPER-00023,2025-088P,2026-06-05T00:47:50.547552,14.79938941,.00007256,51.9013,79.3141,119.4940,240.6095,0,U,63737,999,6069,-.55581067E-4,-.645E-5,0
KUIPER-00024,2025-088Q,2026-06-05T10:50:44.205792,14.79933124,.0000642,51.9035,65.0508,93.2274,266.8762,0,U,63738,999,6105,.8792E-4,.449E-5,0
KUIPER-00025,2025-088R,2026-06-05T11:27:42.046272,14.79930739,.0000529,51.9034,72.4183,108.8786,251.2233,0,U,63739,999,6081,.68913E-4,.304E-5,0
KUIPER-00027,2025-088S,2026-06-05T01:03:21.249216,14.79935761,.00007572,51.9030,69.3133,99.5506,260.5542,0,U,63740,999,6055,.17178471E-3,.1089E-4,0
KUIPER-00028,2025-088T,2026-06-05T11:39:19.587168,14.79941281,.0000706,51.9019,64.8164,108.0136,252.0904,0,U,63741,999,6106,.17788E-3,.1135E-4,0
KUIPER-00029,2025-088U,2026-06-05T11:05:01.939200,14.79885313,.0001797,51.9023,63.6018,101.8487,258.2677,0,U,63742,999,6060,.74285E-3,.544E-4,0
KUIPER-00030,2025-088V,2026-06-05T12:00:47.099232,14.79933872,.0000668,51.9015,82.2549,98.4116,261.6922,0,U,63743,999,6063,.22564E-3,.1499E-4,0
KUIPER-00031,2025-088W,2026-06-05T10:42:04.652352,14.76407874,.000223,51.9025,66.4451,75.4001,284.7207,0,U,63744,999,6056,.46544E-3,.3051E-4,0
KUIPER-00032,2025-088X,2026-06-05T03:46:29.383392,15.39850544,.0004622,51.8682,320.4138,80.4251,279.7258,0,U,63745,999,6301,.39318E-3,.15495E-3,0
KUIPER-00033,2025-088Y,2026-06-05T02:42:39.351744,14.79942239,.00007057,51.9002,98.9920,90.8446,269.2597,0,U,63746,999,6056,.48974795E-3,.3515E-4,0
KUIPER-00034,2025-088Z,2026-06-04T08:13:58.669824,14.79929194,.00006968,51.9027,64.9265,98.6110,261.4931,0,U,63747,999,6065,-.10480472E-3,-.102E-4,0
KUIPER-00035,2025-088AA,2026-06-05T12:45:32.070816,14.79929645,.0000957,51.9008,84.6552,60.6638,299.4420,0,U,63748,999,6053,.10837E-3,.605E-5,0
KUIPER-00037,2025-088AB,2026-06-05T12:35:18.153024,14.79920003,.0000876,51.9036,83.5375,100.5638,259.5423,0,U,63749,999,6133,.11057E-3,.622E-5,0
KUIPER-00038,2025-088AC,2026-06-05T10:42:58.252320,14.79931531,.000076,51.9029,70.0448,96.8559,263.2490,0,U,63750,999,6051,.34258E-4,.4E-6,0
STARLINK-11677 [DTC],2025-089A,2026-06-05T06:06:19.599264,15.70753556,.0001493,43.0001,124.7502,240.1065,119.9654,0,U,63751,999,6390,.19994E-2,.263438E-2,0
STARLINK-11702 [DTC],2025-089B,2026-06-05T14:37:28.945056,15.71174787,.0001804,42.9993,122.2381,11.6008,348.4901,0,U,63752,999,6396,.21875E-2,.294532E-2,0
STARLINK-11706 [DTC],2025-089C,2026-06-05T14:14:31.653024,15.70918067,.0001111,42.9999,122.1083,290.0897,69.9851,0,U,63753,999,6396,.20354E-2,.270282E-2,0
STARLINK-11662 [DTC],2025-089D,2026-06-05T14:52:46.596000,15.71393093,.0002842,43.0014,122.3220,358.4293,1.6566,0,U,63754,999,6401,.1459E-2,.195763E-2,0
STARLINK-11681 [DTC],2025-089E,2026-06-05T15:08:01.982400,15.70916082,.000348,43.0000,122.4062,263.8029,96.2443,0,U,63755,999,6396,.131E-2,.171739E-2,0
STARLINK-11688 [DTC],2025-089F,2026-06-05T19:19:47.188128,15.70906926,.0001956,43.0001,121.1361,317.5638,42.5078,0,U,63756,999,6388,.13578E-2,.178062E-2,0
STARLINK-11676 [DTC],2025-089G,2026-06-05T06:21:25.888608,15.70760166,.0001552,42.9999,123.9371,240.8439,119.2273,0,U,63757,999,6380,.1922E-2,.252977E-2,0
STARLINK-11705 [DTC],2025-089H,2026-06-05T15:00:24.083136,15.70877065,.0001309,42.9991,122.3611,261.3996,98.6723,0,U,63758,999,6391,.14261E-2,.187004E-2,0
STARLINK-11703 [DTC],2025-089J,2026-06-05T14:29:48.745824,15.70908473,.0002307,43.0027,122.1919,268.6505,91.4099,0,U,63759,999,6396,.1354E-2,.177565E-2,0
STARLINK-11701 [DTC],2025-089K,2026-06-05T20:13:06.866112,15.70974484,.0001953,42.9994,120.5295,281.2327,78.8321,0,U,63760,999,6400,.1904E-2,.252867E-2,0
